{
  "type": "FeatureCollection",
  "features": [
    {
      "type": "Feature",
      "properties": {
        "OBJECT_NAME": "IRIDIUM 33 DEB",
        "OBJECT_ID": "1997-051WG",
        "EPOCH": "2025-11-27T20:42:49.673952",
        "MEAN_MOTION": 14.75727675,
        "ECCENTRICITY": 0.0005379,
        "INCLINATION": 86.3661,
        "RA_OF_ASC_NODE": 17.1702,
        "ARG_OF_PERICENTER": 116.7035,
        "MEAN_ANOMALY": 243.4735,
        "EPHEMERIS_TYPE": 0,
        "CLASSIFICATION_TYPE": "U",
        "NORAD_CAT_ID": 36490,
        "ELEMENT_SET_NO": 999,
        "REV_AT_EPOCH": 86265,
        "BSTAR": 0.0018081,
        "MEAN_MOTION_DOT": 0.00012403,
        "MEAN_MOTION_DDOT": 0,
        "norad_id": 36490,
        "name": "IRIDIUM 33 DEB",
        "group": "iridium-33-debris",
        "longitude_deg": NaN,
        "latitude_deg": NaN,
        "alt_km": NaN,
        "orbit_class": "HEO",
        "timestamp": "2025-11-30T09:33:02.606301+00:00"
      },
      "geometry": {
        "type": "Point",
        "coordinates": [
          NaN,
          NaN
        ]
      }
    },
    {
      "type": "Feature",
      "properties": {
        "OBJECT_NAME": "IRIDIUM 33 DEB",
        "OBJECT_ID": "1997-051WK",
        "EPOCH": "2025-11-28T20:39:00.012384",
        "MEAN_MOTION": 14.64962867,
        "ECCENTRICITY": 0.00117554,
        "INCLINATION": 86.3589,
        "RA_OF_ASC_NODE": 17.8443,
        "ARG_OF_PERICENTER": 49.7703,
        "MEAN_ANOMALY": 310.4536,
        "EPHEMERIS_TYPE": 0,
        "CLASSIFICATION_TYPE": "U",
        "NORAD_CAT_ID": 36493,
        "ELEMENT_SET_NO": 999,
        "REV_AT_EPOCH": 74315,
        "BSTAR": 0.0012847841,
        "MEAN_MOTION_DOT": 6.906e-05,
        "MEAN_MOTION_DDOT": 0,
        "norad_id": 36493,
        "name": "IRIDIUM 33 DEB",
        "group": "iridium-33-debris",
        "longitude_deg": NaN,
        "latitude_deg": NaN,
        "alt_km": NaN,
        "orbit_class": "HEO",
        "timestamp": "2025-11-30T09:33:02.606308+00:00"
      },
      "geometry": {
        "type": "Point",
        "coordinates": [
          NaN,
          NaN
        ]
      }
    },
    {
      "type": "Feature",
      "properties": {
        "OBJECT_NAME": "IRIDIUM 33 DEB",
        "OBJECT_ID": "1997-051XK",
        "EPOCH": "2025-11-28T21:43:06.813408",
        "MEAN_MOTION": 14.66913784,
        "ECCENTRICITY": 0.00049288,
        "INCLINATION": 86.3784,
        "RA_OF_ASC_NODE": 30.0035,
        "ARG_OF_PERICENTER": 143.5014,
        "MEAN_ANOMALY": 216.6537,
        "EPHEMERIS_TYPE": 0,
        "CLASSIFICATION_TYPE": "U",
        "NORAD_CAT_ID": 37550,
        "ELEMENT_SET_NO": 999,
        "REV_AT_EPOCH": 86130,
        "BSTAR": 0.0013638028,
        "MEAN_MOTION_DOT": 7.65e-05,
        "MEAN_MOTION_DDOT": 0,
        "norad_id": 37550,
        "name": "IRIDIUM 33 DEB",
        "group": "iridium-33-debris",
        "longitude_deg": NaN,
        "latitude_deg": NaN,
        "alt_km": NaN,
        "orbit_class": "HEO",
        "timestamp": "2025-11-30T09:33:02.606320+00:00"
      },
      "geometry": {
        "type": "Point",
        "coordinates": [
          NaN,
          NaN
        ]
      }
    },
    {
      "type": "Feature",
      "properties": {
        "OBJECT_NAME": "IRIDIUM 33 DEB",
        "OBJECT_ID": "1997-051XX",
        "EPOCH": "2025-11-29T00:05:12.463008",
        "MEAN_MOTION": 14.56266832,
        "ECCENTRICITY": 0.00262725,
        "INCLINATION": 86.3751,
        "RA_OF_ASC_NODE": 49.588,
        "ARG_OF_PERICENTER": 151.1631,
        "MEAN_ANOMALY": 26.2084,
        "EPHEMERIS_TYPE": 0,
        "CLASSIFICATION_TYPE": "U",
        "NORAD_CAT_ID": 37562,
        "ELEMENT_SET_NO": 999,
        "REV_AT_EPOCH": 86128,
        "BSTAR": 0.0012615266,
        "MEAN_MOTION_DOT": 5.628e-05,
        "MEAN_MOTION_DDOT": 0,
        "norad_id": 37562,
        "name": "IRIDIUM 33 DEB",
        "group": "iridium-33-debris",
        "longitude_deg": NaN,
        "latitude_deg": NaN,
        "alt_km": NaN,
        "orbit_class": "HEO",
        "timestamp": "2025-11-30T09:33:02.606327+00:00"
      },
      "geometry": {
        "type": "Point",
        "coordinates": [
          NaN,
          NaN
        ]
      }
    },
    {
      "type": "Feature",
      "properties": {
        "OBJECT_NAME": "IRIDIUM 33 DEB",
        "OBJECT_ID": "1997-051YA",
        "EPOCH": "2025-11-28T09:55:55.852896",
        "MEAN_MOTION": 14.51426025,
        "ECCENTRICITY": 0.00149623,
        "INCLINATION": 86.3509,
        "RA_OF_ASC_NODE": 15.8177,
        "ARG_OF_PERICENTER": 125.8428,
        "MEAN_ANOMALY": 234.417,
        "EPHEMERIS_TYPE": 0,
        "CLASSIFICATION_TYPE": "U",
        "NORAD_CAT_ID": 37565,
        "ELEMENT_SET_NO": 999,
        "REV_AT_EPOCH": 65629,
        "BSTAR": 0.00056070239,
        "MEAN_MOTION_DOT": 2.26e-05,
        "MEAN_MOTION_DDOT": 0,
        "norad_id": 37565,
        "name": "IRIDIUM 33 DEB",
        "group": "iridium-33-debris",
        "longitude_deg": NaN,
        "latitude_deg": NaN,
        "alt_km": NaN,
        "orbit_class": "HEO",
        "timestamp": "2025-11-30T09:33:02.606335+00:00"
      },
      "geometry": {
        "type": "Point",
        "coordinates": [
          NaN,
          NaN
        ]
      }
    },
    {
      "type": "Feature",
      "properties": {
        "OBJECT_NAME": "IRIDIUM 33 DEB",
        "OBJECT_ID": "1997-051YD",
        "EPOCH": "2025-11-28T07:10:50.915424",
        "MEAN_MOTION": 14.48170624,
        "ECCENTRICITY": 0.00921267,
        "INCLINATION": 86.3449,
        "RA_OF_ASC_NODE": 172.4931,
        "ARG_OF_PERICENTER": 152.0812,
        "MEAN_ANOMALY": 208.538,
        "EPHEMERIS_TYPE": 0,
        "CLASSIFICATION_TYPE": "U",
        "NORAD_CAT_ID": 38017,
        "ELEMENT_SET_NO": 999,
        "REV_AT_EPOCH": 61193,
        "BSTAR": 0.0057479417,
        "MEAN_MOTION_DOT": 0.00022669,
        "MEAN_MOTION_DDOT": 0,
        "norad_id": 38017,
        "name": "IRIDIUM 33 DEB",
        "group": "iridium-33-debris",
        "longitude_deg": NaN,
        "latitude_deg": NaN,
        "alt_km": NaN,
        "orbit_class": "HEO",
        "timestamp": "2025-11-30T09:33:02.606343+00:00"
      },
      "geometry": {
        "type": "Point",
        "coordinates": [
          NaN,
          NaN
        ]
      }
    },
    {
      "type": "Feature",
      "properties": {
        "OBJECT_NAME": "IRIDIUM 33 DEB",
        "OBJECT_ID": "1997-051YJ",
        "EPOCH": "2025-11-28T09:44:56.922432",
        "MEAN_MOTION": 14.41117224,
        "ECCENTRICITY": 0.00472697,
        "INCLINATION": 86.2704,
        "RA_OF_ASC_NODE": 22.7184,
        "ARG_OF_PERICENTER": 95.8813,
        "MEAN_ANOMALY": 264.7777,
        "EPHEMERIS_TYPE": 0,
        "CLASSIFICATION_TYPE": "U",
        "NORAD_CAT_ID": 38022,
        "ELEMENT_SET_NO": 999,
        "REV_AT_EPOCH": 68987,
        "BSTAR": 0.0010376862,
        "MEAN_MOTION_DOT": 3.406e-05,
        "MEAN_MOTION_DDOT": 0,
        "norad_id": 38022,
        "name": "IRIDIUM 33 DEB",
        "group": "iridium-33-debris",
        "longitude_deg": NaN,
        "latitude_deg": NaN,
        "alt_km": NaN,
        "orbit_class": "HEO",
        "timestamp": "2025-11-30T09:33:02.606349+00:00"
      },
      "geometry": {
        "type": "Point",
        "coordinates": [
          NaN,
          NaN
        ]
      }
    }
  ]
}